STARLINK-37518          
1 69259U 26117X   26160.16670139 -.01919563  10262-2 -51798-2 0  9997
2 69259  53.1548 283.2509 0000657  65.1909 282.3172 15.93788136  2880
STARLINK-37478          
1 69260U 26117Y   26160.16670139 -.01955259  10622-2 -52739-2 0  9997
2 69260  53.1549 283.2587 0000647  65.3605 278.4820 15.93800831  2886
STARLINK-37506          
1 69261U 26117Z   26160.16670139 -.01972722  10824-2 -52618-2 0  9992
2 69261  53.1546 283.2487 0000599  65.1472 283.3449 15.94014124  2884
STARLINK-37503          
1 69262U 26117AA  26160.16670139 -.02050110  11639-2 -54567-2 0  9992
2 69262  53.1551 283.2424 0000696  60.8363 290.3976 15.94062958  2882
STARLINK-37502          
1 69263U 26117AB  26160.16670139 -.01938509  10447-2 -52426-2 0  9997
2 69263  53.1547 283.2354 0000601  64.7294 289.6906 15.93748420  2880
STARLINK-37486          
1 69264U 26117AC  26160.16670139 -.01936400  10400-2 -53045-2 0  9993
2 69264  53.1545 283.2233 0000654  67.4144 292.9226 15.93505556  2880
STARLINK-37435          
1 69265U 26117AD  26160.16670139 -.01911806  10035-2 -55699-2 0  9998
2 69265  53.1547 283.2047 0000768  66.4237 302.3719 15.92326784  2880
STARLINK-37464          
1 69266U 26117AE  26160.16670139 -.02132332  12288-2 -62734-2 0  9999
2 69266  53.1547 283.1814 0000697  67.1648 312.8420 15.92166465  2880
KUIPER-00282            
1 69267U 26118A   26160.08200432 -.00013441  00000+0 -37797-3 0  9992
2 69267  51.8590  92.6096 0011053 150.3377 209.8237 15.35048320  2732
KUIPER-00383            
1 69268U 26118B   26160.07930347 -.00046811  00000+0 -13465-2 0  9999
2 69268  51.8586  92.5914 0010331 152.3257 207.8280 15.35140189  2735
KUIPER-00527            
1 69269U 26118C   26160.07693654 -.00043831  00000+0 -12411-2 0  9996
2 69269  51.8617  92.5773 0009813 147.0222 213.1378 15.35607183  2730
KUIPER-00562            
1 69270U 26118D   26160.06186199  .00018190  00000+0  48099-3 0  9998
2 69270  51.8719  92.4704 0001941  91.8464 268.2745 15.38461734  2738
KUIPER-00570            
1 69271U 26118E   26160.07921884  .00009262  00000+0  27559-3 0  9996
2 69271  51.8574  92.5911 0011433 155.8184 204.3341 15.35389056  2732
KUIPER-00572            
1 69272U 26118F   26160.07254168  .00010589  00000+0  29988-3 0  9993
2 69272  51.8671  92.5493 0007342 141.3179 218.8334 15.36813578  2738
KUIPER-00581            
1 69273U 26118G   26160.07463565  .00010795  00000+0  30852-3 0  9998
2 69273  51.8652  92.5632 0008896 146.1925 213.9629 15.36493751  2820
KUIPER-00584            
1 69274U 26118H   26160.08101102  .00011346  00000+0  33600-3 0  9993
2 69274  51.8602  92.6035 0011100 159.1060 201.0381 15.35298533  2733
KUIPER-00587            
1 69275U 26118J   26160.07410329  .00010987  00000+0  31409-3 0  9992
2 69275  51.8626  92.5598 0008335 147.7769 212.3728 15.36468683  2734
KUIPER-00590            
1 69276U 26118K   26160.06675624  .00018446  00000+0  49958-3 0  9999
2 69276  51.8687  92.5109 0004335 128.5421 231.5955 15.37706825  2737
KUIPER-00592            
1 69277U 26118L   26160.06538661  .00018486  00000+0  49711-3 0  9990
2 69277  51.8707  92.5001 0003735 106.6054 253.5343 15.37926933  2733
KUIPER-00593            
1 69278U 26118M   26160.06564942  .00020446  00000+0  55031-3 0  9993
2 69278  51.8712  92.5008 0004012 123.3207 236.8164 15.37828576  2797
KUIPER-00594            
1 69279U 26118N   26160.06076623  .00019781  00000+0  52250-3 0  9998
2 69279  51.8717  92.4683 0001157  57.9400 302.1699 15.38436030  2730
KUIPER-00595            
1 69280U 26118P   26160.06240454  .00020189  00000+0  53498-3 0  9994
2 69280  51.8710  92.4808 0001999 106.3468 253.7739 15.38323908  2769
KUIPER-00596            
1 69281U 26118Q   26160.07999382 -.00002369  00000+0 -56204-4 0  9998
2 69281  51.8550  92.5945 0011936 155.4760 204.6796 15.35585063  2731
KUIPER-00597            
1 69282U 26118R   26160.07106213  .00012987  00000+0  36447-3 0  9993
2 69282  51.8647  92.5406 0007164 139.2653 220.8871 15.36880402  2730
KUIPER-00599            
1 69283U 26118S   26160.06994708  .00017864  00000+0  49217-3 0  9995
2 69283  51.8691  92.5318 0006240 133.5629 226.5876 15.37191078  2739
KUIPER-00600            
1 69284U 26118T   26160.07368534  .00011825  00000+0  33587-3 0  9993
2 69284  51.8638  92.5571 0008967 142.3624 217.7991 15.36586377  2732
KUIPER-00601            
1 69285U 26118U   26160.00301435  .00020024  00000+0  54455-3 0  9992
2 69285  51.8703  92.8319 0004801 126.1689 233.9742 15.37519676  2725
KUIPER-00602            
1 69286U 26118V   26160.06477840  .00013259  00000+0  35940-3 0  9993
2 69286  51.8698  92.4968 0003179 115.9845 244.1470 15.37957297  2730
KUIPER-00603            
1 69287U 26118W   26160.06875919  .00018958  00000+0  51862-3 0  9995
2 69287  51.8670  92.5255 0005567 129.2729 230.8752 15.37370830  2730
KUIPER-00605            
1 69288U 26118X   26160.07191083  .00010328  00000+0  29184-3 0  9995
2 69288  51.8659  92.5457 0007690 135.8040 224.3562 15.36910478  2734
