OBJECT_NAME,OBJECT_ID,EPOCH,MEAN_MOTION,ECCENTRICITY,INCLINATION,RA_OF_ASC_NODE,ARG_OF_PERICENTER,MEAN_ANOMALY,EPHEMERIS_TYPE,CLASSIFICATION_TYPE,NORAD_CAT_ID,ELEMENT_SET_NO,REV_AT_EPOCH,BSTAR,MEAN_MOTION_DOT,MEAN_MOTION_DDOT
STARLINK-37518,2026-117X,2026-06-09T04:00:03.000096,15.93788136,.0000657,53.1548,283.2509,65.1909,282.3172,0,U,69259,999,288,-.51798E-2,-.1919563E-1,.10262E-2
STARLINK-37478,2026-117Y,2026-06-09T04:00:03.000096,15.93800831,.0000647,53.1549,283.2587,65.3605,278.4820,0,U,69260,999,288,-.52739E-2,-.1955259E-1,.10622E-2
STARLINK-37506,2026-117Z,2026-06-09T04:00:03.000096,15.94014124,.0000599,53.1546,283.2487,65.1472,283.3449,0,U,69261,999,288,-.52618E-2,-.1972722E-1,.10824E-2
STARLINK-37503,2026-117AA,2026-06-09T04:00:03.000096,15.94062958,.0000696,53.1551,283.2424,60.8363,290.3976,0,U,69262,999,288,-.54567E-2,-.205011E-1,.11639E-2
STARLINK-37502,2026-117AB,2026-06-09T04:00:03.000096,15.93748420,.0000601,53.1547,283.2354,64.7294,289.6906,0,U,69263,999,288,-.52426E-2,-.1938509E-1,.10447E-2
STARLINK-37486,2026-117AC,2026-06-09T04:00:03.000096,15.93505556,.0000654,53.1545,283.2233,67.4144,292.9226,0,U,69264,999,288,-.53045E-2,-.19364E-1,.104E-2
STARLINK-37435,2026-117AD,2026-06-09T04:00:03.000096,15.92326784,.0000768,53.1547,283.2047,66.4237,302.3719,0,U,69265,999,288,-.55699E-2,-.1911806E-1,.10035E-2
STARLINK-37464,2026-117AE,2026-06-09T04:00:03.000096,15.92166465,.0000697,53.1547,283.1814,67.1648,312.8420,0,U,69266,999,288,-.62734E-2,-.2132332E-1,.12288E-2
KUIPER-00282,2026-118A,2026-06-09T01:58:05.173248,15.35048320,.0011053,51.8590,92.6096,150.3377,209.8237,0,U,69267,999,273,-.37797E-3,-.13441E-3,0
KUIPER-00383,2026-118B,2026-06-09T01:54:11.819808,15.35140189,.0010331,51.8586,92.5914,152.3257,207.8280,0,U,69268,999,273,-.13465E-2,-.46811E-3,0
KUIPER-00527,2026-118C,2026-06-09T01:50:47.317056,15.35607183,.0009813,51.8617,92.5773,147.0222,213.1378,0,U,69269,999,273,-.12411E-2,-.43831E-3,0
KUIPER-00562,2026-118D,2026-06-09T01:29:04.875936,15.38461734,.0001941,51.8719,92.4704,91.8464,268.2745,0,U,69270,999,273,.48099E-3,.1819E-3,0
KUIPER-00570,2026-118E,2026-06-09T01:54:04.507776,15.35389056,.0011433,51.8574,92.5911,155.8184,204.3341,0,U,69271,999,273,.27559E-3,.9262E-4,0
KUIPER-00572,2026-118F,2026-06-09T01:44:27.601152,15.36813578,.0007342,51.8671,92.5493,141.3179,218.8334,0,U,69272,999,273,.29988E-3,.10589E-3,0
KUIPER-00581,2026-118G,2026-06-09T01:47:28.520160,15.36493751,.0008896,51.8652,92.5632,146.1925,213.9629,0,U,69273,999,282,.30852E-3,.10795E-3,0
KUIPER-00584,2026-118H,2026-06-09T01:56:39.352128,15.35298533,.00111,51.8602,92.6035,159.1060,201.0381,0,U,69274,999,273,.336E-3,.11346E-3,0
KUIPER-00587,2026-118J,2026-06-09T01:46:42.524256,15.36468683,.0008335,51.8626,92.5598,147.7769,212.3728,0,U,69275,999,273,.31409E-3,.10987E-3,0
KUIPER-00590,2026-118K,2026-06-09T01:36:07.739136,15.37706825,.0004335,51.8687,92.5109,128.5421,231.5955,0,U,69276,999,273,.49958E-3,.18446E-3,0
KUIPER-00592,2026-118L,2026-06-09T01:34:09.403104,15.37926933,.0003735,51.8707,92.5001,106.6054,253.5343,0,U,69277,999,273,.49711E-3,.18486E-3,0
KUIPER-00593,2026-118M,2026-06-09T01:34:32.109888,15.37828576,.0004012,51.8712,92.5008,123.3207,236.8164,0,U,69278,999,279,.55031E-3,.20446E-3,0
KUIPER-00594,2026-118N,2026-06-09T01:27:30.202272,15.38436030,.0001157,51.8717,92.4683,57.9400,302.1699,0,U,69279,999,273,.5225E-3,.19781E-3,0
KUIPER-00595,2026-118P,2026-06-09T01:29:51.752256,15.38323908,.0001999,51.8710,92.4808,106.3468,253.7739,0,U,69280,999,276,.53498E-3,.20189E-3,0
KUIPER-00596,2026-118Q,2026-06-09T01:55:11.466048,15.35585063,.0011936,51.8550,92.5945,155.4760,204.6796,0,U,69281,999,273,-.56204E-4,-.2369E-4,0
KUIPER-00597,2026-118R,2026-06-09T01:42:19.768032,15.36880402,.0007164,51.8647,92.5406,139.2653,220.8871,0,U,69282,999,273,.36447E-3,.12987E-3,0
KUIPER-00599,2026-118S,2026-06-09T01:40:43.427712,15.37191078,.000624,51.8691,92.5318,133.5629,226.5876,0,U,69283,999,273,.49217E-3,.17864E-3,0
KUIPER-00600,2026-118T,2026-06-09T01:46:06.413376,15.36586377,.0008967,51.8638,92.5571,142.3624,217.7991,0,U,69284,999,273,.33587E-3,.11825E-3,0
KUIPER-00601,2026-118U,2026-06-09T00:04:20.439840,15.37519676,.0004801,51.8703,92.8319,126.1689,233.9742,0,U,69285,999,272,.54455E-3,.20024E-3,0
KUIPER-00602,2026-118V,2026-06-09T01:33:16.853760,15.37957297,.0003179,51.8698,92.4968,115.9845,244.1470,0,U,69286,999,273,.3594E-3,.13259E-3,0
KUIPER-00603,2026-118W,2026-06-09T01:39:00.794016,15.37370830,.0005567,51.8670,92.5255,129.2729,230.8752,0,U,69287,999,273,.51862E-3,.18958E-3,0
KUIPER-00605,2026-118X,2026-06-09T01:43:33.095712,15.36910478,.000769,51.8659,92.5457,135.8040,224.3562,0,U,69288,999,273,.29184E-3,.10328E-3,0
